STARLINK-2159_new
1 17745C 21017Z   21326.11388245 -.00018052  00000-0 -12094-2 0  3264
2 17745  53.0544  53.2448 0001161  66.3264 341.4008 15.06419335    10
STARLINK-2159_old
1 27745C 21017Z   21325.15381733  .00005593  00000-0  37472-3 0  3253
2 27745  53.0545  57.5546 0001091  69.6780 168.6910 15.06395825    16
